CCSDS_OMM_VERS = 2.0
CREATION_DATE  = 
ORIGINATOR     = 

OBJECT_NAME    = KUIPER-00214
OBJECT_ID      = 2026-030Q
CENTER_NAME    = EARTH
REF_FRAME      = TEME
TIME_SYSTEM    = UTC
MEAN_ELEMENT_THEORY = SGP/SGP4

EPOCH          = 2026-02-23T15:07:58.996416
MEAN_MOTION    = 15.36144202
ECCENTRICITY   = .00020132
INCLINATION    = 51.8847
RA_OF_ASC_NODE = 286.8412
ARG_OF_PERICENTER = 144.1282
MEAN_ANOMALY   = 215.9840

EPHEMERIS_TYPE = 0
CLASSIFICATION_TYPE = U
NORAD_CAT_ID   = 67778
ELEMENT_SET_NO = 999
REV_AT_EPOCH   = 293
BSTAR          = .12596326E-2
MEAN_MOTION_DOT = .44926E-3
MEAN_MOTION_DDOT = 0

CCSDS_OMM_VERS = 2.0
CREATION_DATE  = 
ORIGINATOR     = 

OBJECT_NAME    = KUIPER-00215
OBJECT_ID      = 2026-030R
CENTER_NAME    = EARTH
REF_FRAME      = TEME
TIME_SYSTEM    = UTC
MEAN_ELEMENT_THEORY = SGP/SGP4

EPOCH          = 2026-02-23T15:30:59.605344
MEAN_MOTION    = 15.33903212
ECCENTRICITY   = .00100381
INCLINATION    = 51.8846
RA_OF_ASC_NODE = 286.9469
ARG_OF_PERICENTER = 19.2371
MEAN_ANOMALY   = 340.8991

EPHEMERIS_TYPE = 0
CLASSIFICATION_TYPE = U
NORAD_CAT_ID   = 67779
ELEMENT_SET_NO = 999
REV_AT_EPOCH   = 293
BSTAR          = .10051734E-2
MEAN_MOTION_DOT = .3328E-3
MEAN_MOTION_DDOT = 0

CCSDS_OMM_VERS = 2.0
CREATION_DATE  = 
ORIGINATOR     = 

OBJECT_NAME    = KUIPER-00218
OBJECT_ID      = 2026-030S
CENTER_NAME    = EARTH
REF_FRAME      = TEME
TIME_SYSTEM    = UTC
MEAN_ELEMENT_THEORY = SGP/SGP4

EPOCH          = 2026-02-23T15:24:02.444544
MEAN_MOTION    = 15.34607491
ECCENTRICITY   = .00062323
INCLINATION    = 51.8844
RA_OF_ASC_NODE = 286.9131
ARG_OF_PERICENTER = 17.4792
MEAN_ANOMALY   = 342.6407

EPHEMERIS_TYPE = 0
CLASSIFICATION_TYPE = U
NORAD_CAT_ID   = 67780
ELEMENT_SET_NO = 999
REV_AT_EPOCH   = 293
BSTAR          = .87046425E-3
MEAN_MOTION_DOT = .29384E-3
MEAN_MOTION_DDOT = 0

CCSDS_OMM_VERS = 2.0
CREATION_DATE  = 
ORIGINATOR     = 

OBJECT_NAME    = KUIPER-00220
OBJECT_ID      = 2026-030T
CENTER_NAME    = EARTH
REF_FRAME      = TEME
TIME_SYSTEM    = UTC
MEAN_ELEMENT_THEORY = SGP/SGP4

EPOCH          = 2026-02-23T15:28:37.089408
MEAN_MOTION    = 15.34135929
ECCENTRICITY   = .00077244
INCLINATION    = 51.8817
RA_OF_ASC_NODE = 286.9305
ARG_OF_PERICENTER = 18.4037
MEAN_ANOMALY   = 341.7227

EPHEMERIS_TYPE = 0
CLASSIFICATION_TYPE = U
NORAD_CAT_ID   = 67781
ELEMENT_SET_NO = 999
REV_AT_EPOCH   = 293
BSTAR          = .12502301E-2
MEAN_MOTION_DOT = .41818E-3
MEAN_MOTION_DDOT = 0

CCSDS_OMM_VERS = 2.0
CREATION_DATE  = 
ORIGINATOR     = 

OBJECT_NAME    = KUIPER-00222
OBJECT_ID      = 2026-030U
CENTER_NAME    = EARTH
REF_FRAME      = TEME
TIME_SYSTEM    = UTC
MEAN_ELEMENT_THEORY = SGP/SGP4

EPOCH          = 2026-02-23T14:09:12.182112
MEAN_MOTION    = 15.32413114
ECCENTRICITY   = .00171501
INCLINATION    = 51.8810
RA_OF_ASC_NODE = 287.3060
ARG_OF_PERICENTER = 21.7247
MEAN_ANOMALY   = 338.4461

EPHEMERIS_TYPE = 0
CLASSIFICATION_TYPE = U
NORAD_CAT_ID   = 67782
ELEMENT_SET_NO = 999
REV_AT_EPOCH   = 292
BSTAR          = .44660089E-3
MEAN_MOTION_DOT = .13896E-3
MEAN_MOTION_DDOT = 0

CCSDS_OMM_VERS = 2.0
CREATION_DATE  = 
ORIGINATOR     = 

OBJECT_NAME    = KUIPER-00223
OBJECT_ID      = 2026-030V
CENTER_NAME    = EARTH
REF_FRAME      = TEME
TIME_SYSTEM    = UTC
MEAN_ELEMENT_THEORY = SGP/SGP4

EPOCH          = 2026-02-23T15:33:46.571616
MEAN_MOTION    = 15.33710898
ECCENTRICITY   = .00131398
INCLINATION    = 51.8840
RA_OF_ASC_NODE = 286.9567
ARG_OF_PERICENTER = 51.8420
MEAN_ANOMALY   = 308.3748

EPHEMERIS_TYPE = 0
CLASSIFICATION_TYPE = U
NORAD_CAT_ID   = 67783
ELEMENT_SET_NO = 999
REV_AT_EPOCH   = 293
BSTAR          = .26088985E-2
MEAN_MOTION_DOT = .87168E-3
MEAN_MOTION_DDOT = 0

CCSDS_OMM_VERS = 2.0
CREATION_DATE  = 
ORIGINATOR     = 

OBJECT_NAME    = KUIPER-00225
OBJECT_ID      = 2026-030W
CENTER_NAME    = EARTH
REF_FRAME      = TEME
TIME_SYSTEM    = UTC
MEAN_ELEMENT_THEORY = SGP/SGP4

EPOCH          = 2026-02-23T15:17:20.968800
MEAN_MOTION    = 15.35260760
ECCENTRICITY   = .00032436
INCLINATION    = 51.8814
RA_OF_ASC_NODE = 286.8797
ARG_OF_PERICENTER = 6.7567
MEAN_ANOMALY   = 353.3462

EPHEMERIS_TYPE = 0
CLASSIFICATION_TYPE = U
NORAD_CAT_ID   = 67784
ELEMENT_SET_NO = 999
REV_AT_EPOCH   = 293
BSTAR          = .12058514E-2
MEAN_MOTION_DOT = .4177E-3
MEAN_MOTION_DDOT = 0

CCSDS_OMM_VERS = 2.0
CREATION_DATE  = 
ORIGINATOR     = 

OBJECT_NAME    = KUIPER-00226
OBJECT_ID      = 2026-030X
CENTER_NAME    = EARTH
REF_FRAME      = TEME
TIME_SYSTEM    = UTC
MEAN_ELEMENT_THEORY = SGP/SGP4

EPOCH          = 2026-02-23T14:16:18.080544
MEAN_MOTION    = 15.31686695
ECCENTRICITY   = .00192952
INCLINATION    = 51.8813
RA_OF_ASC_NODE = 287.3382
ARG_OF_PERICENTER = 30.5452
MEAN_ANOMALY   = 329.6652

EPHEMERIS_TYPE = 0
CLASSIFICATION_TYPE = U
NORAD_CAT_ID   = 67785
ELEMENT_SET_NO = 999
REV_AT_EPOCH   = 292
BSTAR          = .42515607E-3
MEAN_MOTION_DOT = .1292E-3
MEAN_MOTION_DDOT = 0

CCSDS_OMM_VERS = 2.0
CREATION_DATE  = 
ORIGINATOR     = 

OBJECT_NAME    = KUIPER-00259
OBJECT_ID      = 2026-030Y
CENTER_NAME    = EARTH
REF_FRAME      = TEME
TIME_SYSTEM    = UTC
MEAN_ELEMENT_THEORY = SGP/SGP4

EPOCH          = 2026-02-23T15:25:41.655072
MEAN_MOTION    = 15.34444035
ECCENTRICITY   = .00077354
INCLINATION    = 51.8819
RA_OF_ASC_NODE = 286.9170
ARG_OF_PERICENTER = 11.2633
MEAN_ANOMALY   = 348.8524

EPHEMERIS_TYPE = 0
CLASSIFICATION_TYPE = U
NORAD_CAT_ID   = 67786
ELEMENT_SET_NO = 999
REV_AT_EPOCH   = 293
BSTAR          = .89992216E-3
MEAN_MOTION_DOT = .30245E-3
MEAN_MOTION_DDOT = 0

CCSDS_OMM_VERS = 2.0
CREATION_DATE  = 
ORIGINATOR     = 

OBJECT_NAME    = KUIPER-00260
OBJECT_ID      = 2026-030Z
CENTER_NAME    = EARTH
REF_FRAME      = TEME
TIME_SYSTEM    = UTC
MEAN_ELEMENT_THEORY = SGP/SGP4

EPOCH          = 2026-02-23T15:11:21.352128
MEAN_MOTION    = 15.35794543
ECCENTRICITY   = .00011933
INCLINATION    = 51.8807
RA_OF_ASC_NODE = 286.8526
ARG_OF_PERICENTER = 86.7723
MEAN_ANOMALY   = 273.3399

EPHEMERIS_TYPE = 0
CLASSIFICATION_TYPE = U
NORAD_CAT_ID   = 67787
ELEMENT_SET_NO = 999
REV_AT_EPOCH   = 284
BSTAR          = .1025906E-2
MEAN_MOTION_DOT = .36065E-3
MEAN_MOTION_DDOT = 0

CCSDS_OMM_VERS = 2.0
CREATION_DATE  = 
ORIGINATOR     = 

OBJECT_NAME    = KUIPER-00262
OBJECT_ID      = 2026-030AA
CENTER_NAME    = EARTH
REF_FRAME      = TEME
TIME_SYSTEM    = UTC
MEAN_ELEMENT_THEORY = SGP/SGP4

EPOCH          = 2026-02-23T15:09:06.203520
MEAN_MOTION    = 15.36091898
ECCENTRICITY   = .00017294
INCLINATION    = 51.8823
RA_OF_ASC_NODE = 286.8444
ARG_OF_PERICENTER = 128.7583
MEAN_ANOMALY   = 231.3558

EPHEMERIS_TYPE = 0
CLASSIFICATION_TYPE = U
NORAD_CAT_ID   = 67788
ELEMENT_SET_NO = 999
REV_AT_EPOCH   = 293
BSTAR          = .10223488E-2
MEAN_MOTION_DOT = .36287E-3
MEAN_MOTION_DDOT = 0

CCSDS_OMM_VERS = 2.0
CREATION_DATE  = 
ORIGINATOR     = 

OBJECT_NAME    = KUIPER-00266
OBJECT_ID      = 2026-030AB
CENTER_NAME    = EARTH
REF_FRAME      = TEME
TIME_SYSTEM    = UTC
MEAN_ELEMENT_THEORY = SGP/SGP4

EPOCH          = 2026-02-23T14:19:34.123872
MEAN_MOTION    = 15.31469504
ECCENTRICITY   = .00219559
INCLINATION    = 51.8805
RA_OF_ASC_NODE = 287.3517
ARG_OF_PERICENTER = 30.9268
MEAN_ANOMALY   = 329.3004

EPHEMERIS_TYPE = 0
CLASSIFICATION_TYPE = U
NORAD_CAT_ID   = 67789
ELEMENT_SET_NO = 999
REV_AT_EPOCH   = 292
BSTAR          = .93389569E-3
MEAN_MOTION_DOT = .28746E-3
MEAN_MOTION_DDOT = 0

