KUIPER-00214            
1 67778U 26030Q   26054.63054394  .00044926  00000+0  12596-2 0  9996
2 67778  51.8847 286.8412 0002013 144.1282 215.9840 15.36144202  2930
KUIPER-00215            
1 67779U 26030R   26054.64652321  .00033280  00000+0  10052-2 0  9998
2 67779  51.8846 286.9469 0010038  19.2371 340.8991 15.33903212  2936
KUIPER-00218            
1 67780U 26030S   26054.64169496  .00029384  00000+0  87046-3 0  9994
2 67780  51.8844 286.9131 0006232  17.4792 342.6407 15.34607491  2933
KUIPER-00220            
1 67781U 26030T   26054.64487372  .00041818  00000+0  12502-2 0  9991
2 67781  51.8817 286.9305 0007724  18.4037 341.7227 15.34135929  2939
KUIPER-00222            
1 67782U 26030U   26054.58972433  .00013896  00000+0  44660-3 0  9998
2 67782  51.8810 287.3060 0017150  21.7247 338.4461 15.32413114  2925
KUIPER-00223            
1 67783U 26030V   26054.64845569  .00087168  00000+0  26089-2 0  9992
2 67783  51.8840 286.9567 0013139  51.8420 308.3748 15.33710898  2931
KUIPER-00225            
1 67784U 26030W   26054.63704825  .00041770  00000+0  12059-2 0  9992
2 67784  51.8814 286.8797 0003243   6.7567 353.3462 15.35260760  2936
KUIPER-00226            
1 67785U 26030X   26054.59465371  .00012920  00000+0  42516-3 0  9995
2 67785  51.8813 287.3382 0019295  30.5452 329.6652 15.31686695  2925
KUIPER-00259            
1 67786U 26030Y   26054.64284323  .00030245  00000+0  89992-3 0  9997
2 67786  51.8819 286.9170 0007735  11.2633 348.8524 15.34444035  2930
KUIPER-00260            
1 67787U 26030Z   26054.63288602  .00036065  00000+0  10259-2 0  9996
2 67787  51.8807 286.8526 0001193  86.7723 273.3399 15.35794543  2846
KUIPER-00262            
1 67788U 26030AA  26054.63132180  .00036287  00000+0  10223-2 0  9993
2 67788  51.8823 286.8444 0001729 128.7583 231.3558 15.36091898  2935
KUIPER-00266            
1 67789U 26030AB  26054.59692273  .00028746  00000+0  93390-3 0  9991
2 67789  51.8805 287.3517 0021955  30.9268 329.3004 15.31469504  2921
